[{"OBJECT_NAME":"MOZHAETS 4 (RS22)","OBJECT_ID":"2003-042A","EPOCH":"2026-03-10T00:04:00.929856","MEAN_MOTION":14.73256247,"ECCENTRICITY":0.00104743,"INCLINATION":98.344,"RA_OF_ASC_NODE":250.5725,"ARG_OF_PERICENTER":219.0556,"MEAN_ANOMALY":256.8132,"EPHEMERIS_TYPE":0,"CLASSIFICATION_TYPE":"U","NORAD_CAT_ID":27939,"ELEMENT_SET_NO":999,"REV_AT_EPOCH":20094,"BSTAR":0.00028251283,"MEAN_MOTION_DOT":1.773e-5,"MEAN_MOTION_DDOT":0},{"OBJECT_NAME":"NOAA 16 DEB","OBJECT_ID":"2000-055RX","EPOCH":"2026-03-08T00:25:26.326848","MEAN_MOTION":14.76862855,"ECCENTRICITY":0.00219792,"INCLINATION":98.9311,"RA_OF_ASC_NODE":270.5735,"ARG_OF_PERICENTER":48.8979,"MEAN_ANOMALY":311.4121,"EPHEMERIS_TYPE":0,"CLASSIFICATION_TYPE":"U","NORAD_CAT_ID":42379,"ELEMENT_SET_NO":999,"REV_AT_EPOCH":52128,"BSTAR":0.0055241126,"MEAN_MOTION_DOT":0.00039117,"MEAN_MOTION_DDOT":0}]
